{
  "type": "FeatureCollection",
  "features": [
    {
      "type": "Feature",
      "properties": {
        "norad_id": 33822,
        "name": "COSMOS 2251 DEB",
        "group": "cosmos-2251-debris",
        "lat": 71.24028378002664,
        "lon": -135.82772931246967,
        "alt_km": 910.6326704068297,
        "timestamp": "2025-12-27T21:25:02.909412+00:00",
        "meta_object_name": "COSMOS 2251 DEB",
        "meta_object_id": "1993-036BP",
        "meta_epoch": "2025-12-26T21:58:01.564032",
        "meta_mean_motion": 14.13151684,
        "meta_eccentricity": 0.015255,
        "meta_inclination": 74.0689,
        "meta_ra_of_asc_node": 168.6556,
        "meta_arg_of_pericenter": 211.5659,
        "meta_mean_anomaly": 300.8936,
        "meta_ephemeris_type": 0,
        "meta_classification_type": "U",
        "meta_norad_cat_id": 33822,
        "meta_element_set_no": 999,
        "meta_rev_at_epoch": 86254,
        "meta_bstar": 0.0021637,
        "meta_mean_motion_dot": 4.497e-05,
        "meta_mean_motion_ddot": 0,
        "tle_line1": "1 33822U 93036BP  25360.91529588  .00004497  00000+0  21637-2 0  9996",
        "tle_line2": "2 33822  74.0689 168.6556 0152550 211.5659 300.8936 14.13151684862546"
      },
      "geometry": {
        "type": "Point",
        "coordinates": [
          -135.82772931246967,
          71.24028378002664
        ]
      }
    },
    {
      "type": "Feature",
      "properties": {
        "norad_id": 33823,
        "name": "COSMOS 2251 DEB",
        "group": "cosmos-2251-debris",
        "lat": -30.79772577541986,
        "lon": -47.2539057605724,
        "alt_km": 774.662132396782,
        "timestamp": "2025-12-27T21:25:02.909423+00:00",
        "meta_object_name": "COSMOS 2251 DEB",
        "meta_object_id": "1993-036BQ",
        "meta_epoch": "2025-12-27T10:25:23.995200",
        "meta_mean_motion": 13.98991528,
        "meta_eccentricity": 0.02095,
        "meta_inclination": 73.8102,
        "meta_ra_of_asc_node": 123.5767,
        "meta_arg_of_pericenter": 246.4003,
        "meta_mean_anomaly": 180.7964,
        "meta_ephemeris_type": 0,
        "meta_classification_type": "U",
        "meta_norad_cat_id": 33823,
        "meta_element_set_no": 999,
        "meta_rev_at_epoch": 85815,
        "meta_bstar": 0.0010536,
        "meta_mean_motion_dot": 1.811e-05,
        "meta_mean_motion_ddot": 0,
        "tle_line1": "1 33823U 93036BQ  25361.43430550  .00001811  00000+0  10536-2 0  9998",
        "tle_line2": "2 33823  73.8102 123.5767 0209500 246.4003 180.7964 13.98991528858155"
      },
      "geometry": {
        "type": "Point",
        "coordinates": [
          -47.2539057605724,
          -30.79772577541986
        ]
      }
    },
    {
      "type": "Feature",
      "properties": {
        "norad_id": 33825,
        "name": "COSMOS 2251 DEB",
        "group": "cosmos-2251-debris",
        "lat": 49.48379641355691,
        "lon": 158.683025062223,
        "alt_km": 714.5191609219592,
        "timestamp": "2025-12-27T21:25:02.909434+00:00",
        "meta_object_name": "COSMOS 2251 DEB",
        "meta_object_id": "1993-036BS",
        "meta_epoch": "2025-12-27T09:58:23.409408",
        "meta_mean_motion": 14.69923669,
        "meta_eccentricity": 0.0085162,
        "meta_inclination": 73.9853,
        "meta_ra_of_asc_node": 359.249,
        "meta_arg_of_pericenter": 322.9629,
        "meta_mean_anomaly": 162.1524,
        "meta_ephemeris_type": 0,
        "meta_classification_type": "U",
        "meta_norad_cat_id": 33825,
        "meta_element_set_no": 999,
        "meta_rev_at_epoch": 89095,
        "meta_bstar": 0.0013228,
        "meta_mean_motion_dot": 8.35e-05,
        "meta_mean_motion_ddot": 0,
        "tle_line1": "1 33825U 93036BS  25361.41554872  .00008350  00000+0  13228-2 0  9998",
        "tle_line2": "2 33825  73.9853 359.2490 0085162 322.9629 162.1524 14.69923669890952"
      },
      "geometry": {
        "type": "Point",
        "coordinates": [
          158.683025062223,
          49.48379641355691
        ]
      }
    },
    {
      "type": "Feature",
      "properties": {
        "norad_id": 33826,
        "name": "COSMOS 2251 DEB",
        "group": "cosmos-2251-debris",
        "lat": 62.62986996296914,
        "lon": 167.89100784493658,
        "alt_km": 676.9609363062691,
        "timestamp": "2025-12-27T21:25:02.909446+00:00",
        "meta_object_name": "COSMOS 2251 DEB",
        "meta_object_id": "1993-036BT",
        "meta_epoch": "2025-12-27T11:32:34.963008",
        "meta_mean_motion": 14.51783695,
        "meta_eccentricity": 0.0082473,
        "meta_inclination": 74.065,
        "meta_ra_of_asc_node": 22.1607,
        "meta_arg_of_pericenter": 61.4616,
        "meta_mean_anomaly": 60.848,
        "meta_ephemeris_type": 0,
        "meta_classification_type": "U",
        "meta_norad_cat_id": 33826,
        "meta_element_set_no": 999,
        "meta_rev_at_epoch": 87983,
        "meta_bstar": 0.00050374,
        "meta_mean_motion_dot": 2.089e-05,
        "meta_mean_motion_ddot": 0,
        "tle_line1": "1 33826U 93036BT  25361.48096022  .00002089  00000+0  50374-3 0  9991",
        "tle_line2": "2 33826  74.0650  22.1607 0082473  61.4616  60.8480 14.51783695879832"
      },
      "geometry": {
        "type": "Point",
        "coordinates": [
          167.89100784493658,
          62.62986996296914
        ]
      }
    },
    {
      "type": "Feature",
      "properties": {
        "norad_id": 33828,
        "name": "COSMOS 2251 DEB",
        "group": "cosmos-2251-debris",
        "lat": -33.23199344136585,
        "lon": -160.89028185550006,
        "alt_km": 734.9522977894803,
        "timestamp": "2025-12-27T21:25:02.909459+00:00",
        "meta_object_name": "COSMOS 2251 DEB",
        "meta_object_id": "1993-036BV",
        "meta_epoch": "2025-12-27T00:30:00.662400",
        "meta_mean_motion": 14.44373709,
        "meta_eccentricity": 0.00295175,
        "meta_inclination": 74.0447,
        "meta_ra_of_asc_node": 211.5334,
        "meta_arg_of_pericenter": 282.2641,
        "meta_mean_anomaly": 192.8226,
        "meta_ephemeris_type": 0,
        "meta_classification_type": "U",
        "meta_norad_cat_id": 33828,
        "meta_element_set_no": 999,
        "meta_rev_at_epoch": 88519,
        "meta_bstar": 0.0004485036,
        "meta_mean_motion_dot": 1.526e-05,
        "meta_mean_motion_ddot": 0,
        "tle_line1": "1 33828U 93036BV  25361.02084100  .00001526  00000+0  44850-3 0  9994",
        "tle_line2": "2 33828  74.0447 211.5334 0029517 282.2641 192.8226 14.44373709885193"
      },
      "geometry": {
        "type": "Point",
        "coordinates": [
          -160.89028185550006,
          -33.23199344136585
        ]
      }
    },
    {
      "type": "Feature",
      "properties": {
        "norad_id": 33830,
        "name": "COSMOS 2251 DEB",
        "group": "cosmos-2251-debris",
        "lat": 2.1232536381608518,
        "lon": 20.046198092532613,
        "alt_km": 663.9740412646888,
        "timestamp": "2025-12-27T21:25:02.909470+00:00",
        "meta_object_name": "COSMOS 2251 DEB",
        "meta_object_id": "1993-036BX",
        "meta_epoch": "2025-12-27T12:36:09.134208",
        "meta_mean_motion": 14.77052964,
        "meta_eccentricity": 0.0042842,
        "meta_inclination": 74.0311,
        "meta_ra_of_asc_node": 201.3745,
        "meta_arg_of_pericenter": 318.4556,
        "meta_mean_anomaly": 67.3286,
        "meta_ephemeris_type": 0,
        "meta_classification_type": "U",
        "meta_norad_cat_id": 33830,
        "meta_element_set_no": 999,
        "meta_rev_at_epoch": 89690,
        "meta_bstar": 0.00079889,
        "meta_mean_motion_dot": 5.694e-05,
        "meta_mean_motion_ddot": 0,
        "tle_line1": "1 33830U 93036BX  25361.52510572  .00005694  00000+0  79889-3 0  9999",
        "tle_line2": "2 33830  74.0311 201.3745 0042842 318.4556  67.3286 14.77052964896908"
      },
      "geometry": {
        "type": "Point",
        "coordinates": [
          20.046198092532613,
          2.1232536381608518
        ]
      }
    },
    {
      "type": "Feature",
      "properties": {
        "norad_id": 33832,
        "name": "COSMOS 2251 DEB",
        "group": "cosmos-2251-debris",
        "lat": 58.69216578801124,
        "lon": -150.89842687286057,
        "alt_km": 698.5476533759083,
        "timestamp": "2025-12-27T21:25:02.909481+00:00",
        "meta_object_name": "COSMOS 2251 DEB",
        "meta_object_id": "1993-036BZ",
        "meta_epoch": "2025-12-27T05:13:54.178752",
        "meta_mean_motion": 14.608241,
        "meta_eccentricity": 0.0023924,
        "meta_inclination": 74.0535,
        "meta_ra_of_asc_node": 182.3463,
        "meta_arg_of_pericenter": 210.6924,
        "meta_mean_anomaly": 266.9752,
        "meta_ephemeris_type": 0,
        "meta_classification_type": "U",
        "meta_norad_cat_id": 33832,
        "meta_element_set_no": 999,
        "meta_rev_at_epoch": 88636,
        "meta_bstar": 0.001623,
        "meta_mean_motion_dot": 7.942e-05,
        "meta_mean_motion_ddot": 0,
        "tle_line1": "1 33832U 93036BZ  25361.21798818  .00007942  00000+0  16230-2 0  9996",
        "tle_line2": "2 33832  74.0535 182.3463 0023924 210.6924 266.9752 14.60824100886360"
      },
      "geometry": {
        "type": "Point",
        "coordinates": [
          -150.89842687286057,
          58.69216578801124
        ]
      }
    }
  ]
}